NORAD_CAT_ID,OBJECT_NAME,OBJECT_TYPE,EPOCH,MEAN_MOTION,ECCENTRICITY,INCLINATION,RA_OF_ASC_NODE,ARG_OF_PERICENTER,MEAN_ANOMALY,BSTAR,MEAN_MOTION_DOT,MEAN_MOTION_DDOT,TLE_LINE0,TLE_LINE1,TLE_LINE2,SEMIMAJOR_AXIS,PERIOD,APOGEE,PERIGEE,DECAYED
55646.0,STARLINK-5104,PAYLOAD,2024-02-02 22:10:06,14.98329961,0.0002617,70.001,315.3664,258.642,101.4445,2.4482e-05,1.99e-06,0.0,0 STARLINK-5104,1 55646U 23021U   24033.92368228  .00000199  00000-0  24482-4 0  9999,2 55646  70.0010 315.3664 0002617 258.6420 101.4445 14.98329961 54085,6950.193,96.107,573.877,570.239,0.0
55646.0,STARLINK-5104,PAYLOAD,2024-02-03 04:34:38,14.98330519,0.0002592,70.0011,314.6932,258.6872,101.3996,2.8842e-05,2.51e-06,0.0,0 STARLINK-5104,1 55646U 23021U   24034.19072179  .00000251  00000-0  28842-4 0  9999,2 55646  70.0011 314.6932 0002592 258.6872 101.3996 14.98330519 54125,6950.191,96.107,573.858,570.255,0.0
55646.0,STARLINK-5104,PAYLOAD,2024-02-03 18:59:50,14.98333051,0.0002594,70.0011,313.1787,259.1316,100.9551,1.0442e-05,3.2e-07,0.0,0 STARLINK-5104,1 55646U 23021U   24034.79156011  .00000032  00000-0  10442-4 0  9997,2 55646  70.0011 313.1787 0002594 259.1316 100.9551 14.98333051 53910,6950.183,96.107,573.851,570.246,0.0
55646.0,STARLINK-5104,PAYLOAD,2024-02-03 22:12:06,14.98331632,0.0002648,70.0009,312.8423,257.6484,102.4378,-1.6965e-06,-1.13e-06,0.0,0 STARLINK-5104,1 55646U 23021U   24034.92508080 -.00000113  00000-0 -16965-5 0  9998,2 55646  70.0009 312.8423 0002648 257.6484 102.4378 14.98331632 54232,6950.188,96.107,573.893,570.212,0.0
55646.0,STARLINK-5104,PAYLOAD,2024-02-04 04:36:39,14.98333305,0.0002636,70.0008,312.1691,258.0466,102.0397,1.7177e-05,1.12e-06,0.0,0 STARLINK-5104,1 55646U 23021U   24035.19211885  .00000112  00000-0  17177-4 0  9994,2 55646  70.0008 312.1691 0002636 258.0466 102.0397 14.98333305 54273,6950.183,96.107,573.88,570.216,0.0
55646.0,STARLINK-5104,PAYLOAD,2024-02-04 19:01:51,14.98332549,0.0002635,70.0007,310.6542,257.6736,102.4128,1.0702e-06,-8e-07,0.0,0 STARLINK-5104,1 55646U 23021U   24035.79295851 -.00000080  00000-0  10702-5 0  9998,2 55646  70.0007 310.6542 0002635 257.6736 102.4128 14.98332549 54066,6950.185,96.107,573.881,570.219,0.0
55646.0,STARLINK-5104,PAYLOAD,2024-02-04 22:14:07,14.98332455,0.0002647,70.0007,310.3173,256.9348,103.1516,2.9384e-07,-8.9e-07,0.0,0 STARLINK-5104,1 55646U 23021U   24035.92647819 -.00000089  00000-0  29384-6 0  9994,2 55646  70.0007 310.3173 0002647 256.9348 103.1516 14.98332455 54387,6950.185,96.107,573.89,570.211,0.0
55646.0,STARLINK-5104,PAYLOAD,2024-02-05 11:03:12,14.98330452,0.0002579,70.0006,308.9696,265.8473,94.2391,-3.0985e-05,-4.63e-06,0.0,0 STARLINK-5104,1 55646U 23021U   24036.46055987 -.00000463  00000-0 -30985-4 0  9997,2 55646  70.0006 308.9696 0002579 265.8473  94.2391 14.98330452 54466,6950.191,96.107,573.849,570.264,0.0
55646.0,STARLINK-5104,PAYLOAD,2024-02-05 19:03:52,14.98327624,0.0002578,70.0006,308.1274,268.2365,91.8499,4.6587e-05,4.63e-06,0.0,0 STARLINK-5104,1 55646U 23021U   24036.79435877  .00000463  00000-0  46587-4 0  9996,2 55646  70.0006 308.1274 0002578 268.2365  91.8499 14.98327624 54218,6950.2,96.107,573.857,570.273,0.0
55646.0,STARLINK-5104,PAYLOAD,2024-02-05 22:16:08,14.98308674,0.0002592,70.0006,307.7908,265.1278,94.9585,0.00035108,4.096e-05,0.0,0 STARLINK-5104,1 55646U 23021U   24036.92788127  .00004096  00000-0  35108-3 0  9992,2 55646  70.0006 307.7908 0002592 265.1278  94.9585 14.98308674 54531,6950.259,96.108,573.925,570.322,0.0
55646.0,STARLINK-5104,PAYLOAD,2024-02-06 03:04:32,14.98329629,0.0002588,70.0006,307.2859,268.0625,92.0238,4.3442e-05,4.25e-06,0.0,0 STARLINK-5104,1 55646U 23021U   24037.12815772  .00000425  00000-0  43442-4 0  9995,2 55646  70.0006 307.2859 0002588 268.0625  92.0238 14.98329629 54564,6950.194,96.107,573.858,570.26,0.0
55646.0,STARLINK-5104,PAYLOAD,2024-02-06 19:05:53,14.98330174,0.0002604,70.0005,305.6026,267.2857,92.8004,3.5478e-05,3.3e-06,0.0,0 STARLINK-5104,1 55646U 23021U   24037.79575581  .00000330  00000-0  35478-4 0  9994,2 55646  70.0005 305.6026 0002604 267.2857  92.8004 14.98330174 54362,6950.192,96.107,573.867,570.248,0.0
55646.0,STARLINK-5104,PAYLOAD,2024-02-06 20:42:01,14.98330272,0.0002619,70.0004,305.4345,266.3243,93.7617,1.8019e-05,1.22e-06,0.0,0 STARLINK-5104,1 55646U 23021U   24037.86251621  .00000122  00000-0  18019-4 0  9999,2 55646  70.0004 305.4345 0002619 266.3243  93.7617 14.98330272 54671,6950.192,96.107,573.877,570.237,0.0
55646.0,STARLINK-5104,PAYLOAD,2024-02-07 11:07:14,14.98329274,0.0002574,70.0005,303.9198,276.1613,83.9253,-6.1903e-05,-8.31e-06,0.0,0 STARLINK-5104,1 55646U 23021U   24038.46335923 -.00000831  00000-0 -61903-4 0  9993,2 55646  70.0005 303.9198 0002574 276.1613  83.9253 14.98329274 54768,6950.195,96.107,573.849,570.271,0.0
55646.0,STARLINK-5104,PAYLOAD,2024-02-07 19:07:54,14.98322851,0.0002793,70.0007,303.0772,272.9128,87.1712,-3.8448e-05,-5.52e-06,0.0,0 STARLINK-5104,1 55646U 23021U   24038.79716231 -.00000552  00000-0 -38448-4 0  9992,2 55646  70.0007 303.0772 0002793 272.9128  87.1712 14.98322851 54510,6950.215,96.107,574.021,570.139,0.0
55646.0,STARLINK-5104,PAYLOAD,2024-02-07 22:20:11,14.98323231,0.0002727,70.0003,302.7409,272.5628,87.5219,-5.9191e-05,-7.99e-06,0.0,0 STARLINK-5104,1 55646U 23021U   24038.93068334 -.00000799  00000-0 -59191-4 0  9993,2 55646  70.0003 302.7409 0002727 272.5628  87.5219 14.98323231 54831,6950.214,96.107,573.974,570.184,0.0
55646.0,STARLINK-5104,PAYLOAD,2024-02-08 01:32:27,14.9832281,0.0002674,70.0001,302.4041,268.4522,91.6331,-7.2989e-05,-9.64e-06,0.0,0 STARLINK-5104,1 55646U 23021U   24039.06420386 -.00000964  00000-0 -72989-4 0  9991,2 55646  70.0001 302.4041 0002674 268.4522  91.6331 14.98322810 54851,6950.215,96.107,573.939,570.222,0.0
55646.0,STARLINK-5104,PAYLOAD,2024-02-08 19:09:55,14.98329088,0.0002798,69.9999,300.5522,271.3585,88.7253,-1.4958e-05,-2.71e-06,0.0,0 STARLINK-5104,1 55646U 23021U   24039.79855983 -.00000271  00000-0 -14958-4 0  9999,2 55646  69.9999 300.5522 0002798 271.3585  88.7253 14.98329088 54669,6950.196,96.107,574.005,570.116,0.0
55646.0,STARLINK-5104,PAYLOAD,2024-02-08 22:22:11,14.98330194,0.0002809,69.9999,300.2155,271.3267,88.757,-2.2705e-05,-3.64e-06,0.0,0 STARLINK-5104,1 55646U 23021U   24039.93207945 -.00000364  00000-0 -22705-4 0  9996,2 55646  69.9999 300.2155 0002809 271.3267  88.7570 14.98330194 54985,6950.192,96.107,574.01,570.105,0.0
55646.0,STARLINK-5104,PAYLOAD,2024-02-09 03:10:35,14.98333758,0.000279,69.9999,299.7109,271.9739,88.11,2.1434e-05,1.63e-06,0.0,0 STARLINK-5104,1 55646U 23021U   24040.13235590  .00000163  00000-0  21434-4 0  9990,2 55646  69.9999 299.7109 0002790 271.9739  88.1100 14.98333758 55012,6950.181,96.107,573.985,570.107,0.0
55646.0,STARLINK-5104,PAYLOAD,2024-02-09 19:11:57,14.98297334,0.0002872,70.0001,298.0282,259.7726,100.3109,0.00047537,5.579e-05,0.0,0 STARLINK-5104,1 55646U 23021U   24040.79996712  .00005579  00000-0  47537-3 0  9999,2 55646  70.0001 298.0282 0002872 259.7726 100.3109 14.98297334 54816,6950.294,96.109,574.155,570.163,0.0
55646.0,STARLINK-5104,PAYLOAD,2024-02-10 03:12:36,14.98326744,0.0002698,70.0002,297.1866,257.78,102.3056,5.7868e-05,5.98e-06,0.0,0 STARLINK-5104,1 55646U 23021U   24041.13376034  .00000598  00000-0  57868-4 0  9992,2 55646  70.0002 297.1866 0002698 257.7800 102.3056 14.98326744 54868,6950.203,96.107,573.943,570.193,0.0
55646.0,STARLINK-5104,PAYLOAD,2024-02-10 22:26:13,14.9833226,0.0002674,70.0002,295.1666,256.372,103.7142,2.214e-05,1.71e-06,0.0,0 STARLINK-5104,1 55646U 23021U   24041.93487761  .00000171  00000-0  22140-4 0  9992,2 55646  70.0002 295.1666 0002674 256.3720 103.7142 14.98332260 55282,6950.186,96.107,573.909,570.192,0.0
55646.0,STARLINK-5104,PAYLOAD,2024-02-11 03:14:37,14.98335289,0.0002645,70.0001,294.6613,259.0039,101.0822,5.5258e-05,5.67e-06,0.0,0 STARLINK-5104,1 55646U 23021U   24042.13515446  .00000567  00000-0  55258-4 0  9992,2 55646  70.0001 294.6613 0002645 259.0039 101.0822 14.98335289 55019,6950.177,96.107,573.88,570.203,0.0
55646.0,STARLINK-5104,PAYLOAD,2024-02-11 20:52:04,14.98353191,0.0002933,70.0003,292.8072,270.8014,89.2808,0.0001239,1.387e-05,0.0,0 STARLINK-5104,1 55646U 23021U   24042.86949564  .00001387  00000-0  12390-3 0  9994,2 55646  70.0003 292.8072 0002933 270.8014  89.2808 14.98353191 55129,6950.121,96.106,574.025,569.948,0.0
55646.0,STARLINK-5104,PAYLOAD,2024-02-11 22:28:12,14.98351676,0.0002731,70.0012,292.6397,267.6805,92.4041,0.00017827,2.036e-05,0.0,0 STARLINK-5104,1 55646U 23021U   24042.93625440  .00002036  00000-0  17827-3 0  9998,2 55646  70.0012 292.6397 0002731 267.6805  92.4041 14.98351676 55430,6950.126,96.106,573.889,570.093,0.0
55646.0,STARLINK-5104,PAYLOAD,2024-02-12 03:16:34,14.98365917,0.0002855,69.9997,292.1358,254.3443,105.7401,0.00035955,4.204e-05,0.0,0 STARLINK-5104,1 55646U 23021U   24043.13651499  .00004204  00000-0  35955-3 0  9995,2 55646  69.9997 292.1358 0002855 254.3443 105.7401 14.98365917 55160,6950.082,96.105,573.931,569.963,0.0
55646.0,STARLINK-5104,PAYLOAD,2024-02-12 19:17:58,14.98324493,0.0003433,69.9979,290.4525,270.9622,89.1143,-0.0002302,-2.838e-05,0.0,0 STARLINK-5104,1 55646U 23021U   24043.80415404 -.00002838  00000-0 -23020-3 0  9996,2 55646  69.9979 290.4525 0003433 270.9622  89.1143 14.98324493 55266,6950.21,96.107,574.461,569.689,0.0
55646.0,STARLINK-5104,PAYLOAD,2024-02-12 22:30:15,14.98317985,0.0003318,69.9985,290.1154,272.8753,87.2027,-0.00026899,-3.3e-05,0.0,0 STARLINK-5104,1 55646U 23021U   24043.93767959 -.00003300  00000-0 -26899-3 0  9997,2 55646  69.9985 290.1154 0003318 272.8753  87.2027 14.98317985 55589,6950.23,96.108,574.401,569.789,0.0
55646.0,STARLINK-5104,PAYLOAD,2024-02-13 09:43:11,14.98322839,0.000335,69.9985,288.9366,271.5276,88.5499,-0.0002542,-3.124e-05,0.0,0 STARLINK-5104,1 55646U 23021U   24044.40499766 -.00003124  00000-0 -25420-3 0  9991,2 55646  69.9985 288.9366 0003350 271.5276  88.5499 14.98322839 55650,6950.215,96.107,574.408,569.752,0.0
